HAIYANG-2D              
1 48621U 21043A   26170.96739098 -.00000076  00000+0  48553-5 0  9991
2 48621  66.0000 297.7773 0011468 268.5776  91.3978 13.83370680256939
2021-050D               
1 48843U 21050D   26170.96312793  .00002729  00000+0  11780-3 0  9990
2 48843  97.3331 246.9358 0004048 249.1518 110.9286 15.23348212279385
TYVAK-0173              
1 48892U 21059P   26170.76364613  .00001265  00000+0  16382-3 0  9996
2 48892  96.0085 246.4800 0009843  31.9739 328.2074 14.81897662268623
MANDRAKE 2 ABLE         
1 48907U 21059AE  26170.49054672  .00018617  00000+0  27827-3 0  9999
2 48907  97.7033   0.4503 0004208 357.5299   2.5933 15.55068742277488
MANDRAKE 2 BAKER        
1 48908U 21059AF  26170.47960073  .00023971  00000+0  30157-3 0  9998
2 48908  97.7005   3.3257 0002703 357.4124   2.7118 15.59664496277658
PACE-1                  
1 48909U 21059AG  26170.49752508  .00076419  00000+0  40738-3 0  9994
2 48909  97.6758   8.8992 0001335 261.3769  98.7346 15.80204733278160
YAM-3                   
1 48915U 21059AN  26170.26423614  .00010028  00000+0  18976-3 0  9992
2 48915  97.6996 357.3547 0004713   3.1999 356.9280 15.48595720277314
FARADAY_PHOENIX         
1 48924U 21059AX  26170.49789538  .00120145  00000+0  67159-3 0  9996
2 48924  97.6806   8.7823 0003279 282.3293  77.7606 15.79019110278029
DEMO8 (TENZING)         
1 48951U 21059CA  26170.49352958  .00016108  00000+0  24098-3 0  9996
2 48951  97.7026   4.0879 0005994 346.4800  13.6291 15.55067198277667
NAPA-2                  
1 48963U 21059CN  26170.00670013  .00388539  68392-4  67912-3 0  9996
2 48963  97.6622   9.4637 0003505 235.5347 124.5601 16.02141287278104
FENGYUN 3E              
1 49008U 21062A   26170.94990736 -.00000432  00000+0 -18259-3 0  9993
2 49008  98.7492 174.3273 0002862  81.7572 278.3929 14.19902876256973
ISS (NAUKA)             
1 49044U 21066A   26170.83410215  .00008787  00000+0  16559-3 0  9994
2 49044  51.6328 286.9925 0004571 206.3215 153.7542 15.49322400571689
STARLINK-3100           
1 49144U 21082Q   26170.77743589  .00000254  00000+0  29056-4 0  9997
2 49144  69.9998  37.0484 0003054 268.9538  91.1271 14.98331545261275
CUTE                    
1 49263U 21088D   26170.51114254  .00134950  90676-5  37481-3 0  9993
2 49263  97.4176 270.0311 0007475 225.0755 134.9914 15.93770363262929
2021-091B               
1 49316U 21091B   26170.95934709  .00002191  00000+0  10909-3 0  9992
2 49316  97.4474 358.4912 0014445  36.9829 323.2398 15.18565434259409
SDGSAT 1                
1 49387U 21100A   26170.93103828  .00001786  00000+0  88152-4 0  9994
2 49387  97.2622 217.7773 0007734 261.1373  98.8986 15.19119829256332
TEIKYOSAT-4 (OORURI)    
1 49396U 21102B   26170.63962178  .00001431  00000+0  92997-4 0  9993
2 49396  97.3669 200.0278 0010361 286.9508  73.0586 15.09515149253099
Z-SAT                   
1 49399U 21102E   26170.90015727  .00003246  00000+0  16118-3 0  9991
2 49399  97.3318 206.1411 0015186 234.2033 125.7791 15.18279107253856
HIBARI                  
1 49400U 21102F   26170.68440530  .00008809  00000+0  28905-3 0  9990
2 49400  97.3232 216.5589 0011738 182.7230 177.3950 15.31771267254579
KOSEN-1                 
1 49402U 21102H   26170.63203745  .00005778  00000+0  22117-3 0  9993
2 49402  97.3181 212.7418 0013466 191.5999 168.4932 15.26862582254399
GLOBAL-14               
1 49469U 21106A   26170.34031529  .00022421  00000+0  38296-3 0  9996
2 49469  42.0036 278.2839 0015448  34.8288 325.3565 15.50686613258468
GAOFEN-3 02             
1 49495U 21109A   26170.96278277 -.00000294  00000+0 -76054-4 0  9990
2 49495  98.4086 179.0202 0002706  10.7026 349.4221 14.42216282240711
GLOBAL-12               
1 49772U 21115BA  26170.77528355  .00028815  00000+0  44777-3 0  9992
2 49772  53.1955  32.0958 0003024  71.6920 288.4421 15.53738348256302
GLOBAL-13               
1 49773U 21115BB  26170.64085352  .00016756  00000+0  34455-3 0  9997
2 49773  53.1982  42.9229 0003623 115.3439 244.7945 15.46119645256143
GLOBAL-17               
1 49949U 21120A   26170.91964727  .00023065  00000+0  37061-3 0  9997
2 49949  41.9962  33.0117 0015789 274.0876  85.8163 15.52373131255326
GLOBAL-16               
1 49950U 21120B   26170.35694392  .00020855  00000+0  36244-3 0  9991
2 49950  41.9964  40.1356 0013768 262.3846  97.5434 15.50259008255185
XW-3 (CAS-9)            
1 50466U 21131B   26170.97021572  .00000288  00000+0  10257-3 0  9993
2 50466  98.4983 263.3449 0005401  90.3739 269.8069 14.41359043235516
ION SCV-004             
1 50993U 22002K   26170.78459640  .00004241  00000+0  14640-3 0  9999
2 50993  97.2829 228.3944 0006850 358.4093   1.7125 15.30472940245695
ETV-A1                  
1 51060U 22002CE  26170.93639515  .00009029  00000+0  22293-3 0  9995
2 51060  97.2872 237.2340 0004217 352.7333   7.3851 15.40728205246268
BRO-5                   
1 51061U 22002CF  26170.90226171  .00025346  00000+0  49445-3 0  9991
2 51061  97.2991 244.5956 0003650 316.1825  43.9136 15.47488214246672
