OBJECT_NAME,OBJECT_ID,EPOCH,MEAN_MOTION,ECCENTRICITY,INCLINATION,RA_OF_ASC_NODE,ARG_OF_PERICENTER,MEAN_ANOMALY,EPHEMERIS_TYPE,CLASSIFICATION_TYPE,NORAD_CAT_ID,ELEMENT_SET_NO,REV_AT_EPOCH,BSTAR,MEAN_MOTION_DOT,MEAN_MOTION_DDOT
HAIYANG-2D,2021-043A,2026-06-19T23:13:02.580672,13.83370680,.00114681,66.0000,297.7773,268.5776,91.3978,0,U,48621,999,25693,.4855323E-5,-.76E-6,0
2021-050D,2021-050D,2026-06-19T23:06:54.253152,15.23348212,.00040485,97.3331,246.9358,249.1518,110.9286,0,U,48843,999,27938,.11779994E-3,.2729E-4,0
TYVAK-0173,2021-059P,2026-06-19T18:19:39.025632,14.81897662,.00098435,96.0085,246.4800,31.9739,328.2074,0,U,48892,999,26862,.16382317E-3,.1265E-4,0
MANDRAKE 2 ABLE,2021-059AE,2026-06-19T11:46:23.236608,15.55068742,.00042086,97.7033,0.4503,357.5299,2.5933,0,U,48907,999,27748,.27827257E-3,.18617E-3,0
MANDRAKE 2 BAKER,2021-059AF,2026-06-19T11:30:37.503072,15.59664496,.00027034,97.7005,3.3257,357.4124,2.7118,0,U,48908,999,27765,.30157054E-3,.23971E-3,0
PACE-1,2021-059AG,2026-06-19T11:56:26.166912,15.80204733,.00013356,97.6758,8.8992,261.3769,98.7346,0,U,48909,999,27816,.40737798E-3,.76419E-3,0
YAM-3,2021-059AN,2026-06-19T06:20:30.002496,15.48595720,.00047138,97.6996,357.3547,3.1999,356.9280,0,U,48915,999,27731,.18976455E-3,.10028E-3,0
FARADAY_PHOENIX,2021-059AX,2026-06-19T11:56:58.160832,15.79019110,.00032797,97.6806,8.7823,282.3293,77.7606,0,U,48924,999,27802,.67159411E-3,.120145E-2,0
DEMO8 (TENZING),2021-059CA,2026-06-19T11:50:40.955712,15.55067198,.00059943,97.7026,4.0879,346.4800,13.6291,0,U,48951,999,27766,.24098395E-3,.16108E-3,0
NAPA-2,2021-059CN,2026-06-19T00:09:38.891232,16.02141287,.00035057,97.6622,9.4637,235.5347,124.5601,0,U,48963,999,27810,.67912093E-3,.388539E-2,.68392004E-4
FENGYUN 3E,2021-062A,2026-06-19T22:47:51.995904,14.19902876,.00028628,98.7492,174.3273,81.7572,278.3929,0,U,49008,999,25697,-.1825907E-3,-.432E-5,0
ISS (NAUKA),2021-066A,2026-06-19T20:01:06.425760,15.49322400,.0004571,51.6328,286.9925,206.3215,153.7542,0,U,49044,999,57168,.16558772E-3,.8787E-4,0
STARLINK-3100,2021-082Q,2026-06-19T18:39:30.460896,14.98331545,.00030547,69.9998,37.0484,268.9538,91.1271,0,U,49144,999,26127,.29056272E-4,.254E-5,0
CUTE,2021-088D,2026-06-19T12:16:02.715456,15.93770363,.00074752,97.4176,270.0311,225.0755,134.9914,0,U,49263,999,26292,.37480835E-3,.13495E-2,.9067552E-5
2021-091B,2021-091B,2026-06-19T23:01:27.588576,15.18565434,.00144454,97.4474,358.4912,36.9829,323.2398,0,U,49316,999,25940,.10909466E-3,.2191E-4,0
SDGSAT 1,2021-100A,2026-06-19T22:20:41.707392,15.19119829,.00077344,97.2622,217.7773,261.1373,98.8986,0,U,49387,999,25633,.88151951E-4,.1786E-4,0
TEIKYOSAT-4 (OORURI),2021-102B,2026-06-19T15:21:03.321792,15.09515149,.0010361,97.3669,200.0278,286.9508,73.0586,0,U,49396,999,25309,.92996789E-4,.1431E-4,0
Z-SAT,2021-102E,2026-06-19T21:36:13.588128,15.18279107,.00151867,97.3318,206.1411,234.2033,125.7791,0,U,49399,999,25385,.16117914E-3,.3246E-4,0
HIBARI,2021-102F,2026-06-19T16:25:32.617920,15.31771267,.0011738,97.3232,216.5589,182.7230,177.3950,0,U,49400,999,25457,.28904763E-3,.8809E-4,0
KOSEN-1,2021-102H,2026-06-19T15:10:08.035680,15.26862582,.00134669,97.3181,212.7418,191.5999,168.4932,0,U,49402,999,25439,.22116597E-3,.5778E-4,0
GLOBAL-14,2021-106A,2026-06-19T08:10:03.241056,15.50686613,.00154485,42.0036,278.2839,34.8288,325.3565,0,U,49469,999,25846,.38295685E-3,.22421E-3,0
GAOFEN-3 02,2021-109A,2026-06-19T23:06:24.431328,14.42216282,.00027061,98.4086,179.0202,10.7026,349.4221,0,U,49495,999,24071,-.76053925E-4,-.294E-5,0
GLOBAL-12,2021-115BA,2026-06-19T18:36:24.498720,15.53738348,.00030246,53.1955,32.0958,71.6920,288.4421,0,U,49772,999,25630,.44777022E-3,.28815E-3,0
GLOBAL-13,2021-115BB,2026-06-19T15:22:49.744128,15.46119645,.00036234,53.1982,42.9229,115.3439,244.7945,0,U,49773,999,25614,.34455052E-3,.16756E-3,0
GLOBAL-17,2021-120A,2026-06-19T22:04:17.524128,15.52373131,.00157898,41.9962,33.0117,274.0876,85.8163,0,U,49949,999,25532,.37060699E-3,.23065E-3,0
GLOBAL-16,2021-120B,2026-06-19T08:33:59.954688,15.50259008,.00137683,41.9964,40.1356,262.3846,97.5434,0,U,49950,999,25518,.36243974E-3,.20855E-3,0
XW-3 (CAS-9),2021-131B,2026-06-19T23:17:06.638208,14.41359043,.00054019,98.4983,263.3449,90.3739,269.8069,0,U,50466,999,23551,.10257265E-3,.288E-5,0
ION SCV-004,2022-002K,2026-06-19T18:49:49.128960,15.30472940,.00068506,97.2829,228.3944,358.4093,1.7125,0,U,50993,999,24569,.14640283E-3,.4241E-4,0
ETV-A1,2022-002CE,2026-06-19T22:28:24.540960,15.40728205,.00042179,97.2872,237.2340,352.7333,7.3851,0,U,51060,999,24626,.22292844E-3,.9029E-4,0
BRO-5,2022-002CF,2026-06-19T21:39:15.411744,15.47488214,.00036503,97.2991,244.5956,316.1825,43.9136,0,U,51061,999,24667,.49445234E-3,.25346E-3,0
